STARLINK-1933           
1 46791U 20074BE  23355.29158130 -.00008553  00000+0 -55626-3 0  9996
2 46791  53.0566 355.1453 0002155 140.6040 219.5106 15.06377666174359
STARLINK-1934           
1 46792U 20074BF  23355.25196153  .00002685  00000+0  19910-3 0  9994
2 46792  53.0546 345.3329 0001572 100.1043 260.0124 15.06395580174487
STARLINK-1941           
1 46793U 20074BG  23355.14783109  .00003192  00000+0  23307-3 0  9995
2 46793  53.0541 355.7944 0001402  81.6749 278.4399 15.06399182174332
STARLINK-1942           
1 46794U 20074BH  23355.15519995  .00003469  00000+0  25166-3 0  9999
2 46794  53.0553 355.7574 0001441  98.6876 261.4276 15.06400857174335
STARLINK-1944           
1 46796U 20074BK  23355.13031933  .00005818  00000+0  40908-3 0  9991
2 46796  53.0547 345.8706 0001185  93.2909 266.8216 15.06408451174476
STARLINK-1948           
1 46798U 20074BM  23355.36112536  .00000166  00000+0  30025-4 0  9998
2 46798  53.0557   9.8336 0001411  89.9427 270.1723 15.06396913174227
COSMOS 2547 [GLONASS-K] 
1 46805U 20075A   23353.11014135  .00000048  00000+0  00000+0 0  9999
2 46805  64.6060 222.9515 0005689 238.2061 121.8177  2.13102801 24497
YAOGAN-30 U             
1 46807U 20076A   23355.46954560  .00003601  00000+0  33651-3 0  9997
2 46807  34.9926 194.8624 0000698  74.2492 285.8290 14.93682446171836
YAOGAN-30 V             
1 46808U 20076B   23355.04592817  .00003525  00000+0  32922-3 0  9990
2 46808  34.9931 197.1343 0002485 359.5541   0.5162 14.93717458171772
YAOGAN-30 W             
1 46809U 20076C   23355.49148948  .00003624  00000+0  33848-3 0  9990
2 46809  34.9944 194.2479 0006525  72.3600 287.7818 14.93695736171838
TIANQI-6                
1 46810U 20076D   23354.98319028  .00004718  00000+0  42053-3 0  9997
2 46810  35.0001 181.3544 0012551 138.7090 221.4567 14.95410064171930
FLOCK 4V-25             
1 46812U 20061BP  23354.77967167  .00070823  00000+0  99724-3 0  9990
2 46812  97.3219  69.3980 0002304 321.0220  39.0869 15.56409624175424
FLOCK 4E'-8             
1 46816U 20077D   23354.73370285  .00047821  00000+0  70530-3 0  9992
2 46816  97.3493  65.4863 0005710 186.8142 173.3035 15.55228513175177
FLOCK 4E'-5             
1 46817U 20077E   23354.77076175  .00074577  00000+0  10117-2 0  9990
2 46817  97.3426  64.7955 0005380 212.8630 147.2292 15.57389125175133
CE-SAT IIB              
1 46818U 20077F   23355.44257964  .00012843  00000+0  48904-3 0  9997
2 46818  97.3435  52.3319 0009782 254.7329 105.2829 15.26820628174404
FLOCK 4E'-3             
1 46819U 20077G   23354.74554166  .00062519  00000+0  84718-3 0  9992
2 46819  97.3432  64.4809 0003722 203.5680 156.5406 15.57474608175138
NAVSTAR 80 (USA 309)    
1 46826U 20078A   23354.60307303 -.00000004  00000+0  00000+0 0  9995
2 46826  54.2575 247.7074 0038178 193.7488 343.0881  2.00562228 23261
RISAT-2BR2              
1 46905U 20081A   23354.90440549  .00004802  00000+0  40372-3 0  9999
2 46905  36.8983 213.0384 0011422 343.0536  16.9822 14.98100822170841
KSM1-C                  
1 46906U 20081B   23354.91022432  .00007458  00000+0  50654-3 0  9992
2 46906  36.8925 183.2967 0004211 244.6866 115.3440 15.05996949171082
KSM1-D                  
1 46907U 20081C   23355.45509322  .00007099  00000+0  48480-3 0  9996
2 46907  36.8969 180.5725 0006727 261.9279  98.0700 15.05808164171231
LEMUR-2-OZARAK          
1 46908U 20081D   23354.63846864  .00022089  00000+0  10115-2 0  9990
2 46908  36.8959 156.6129 0007025 335.7297  24.3118 15.19724222171439
LEMUR-2-JINDRA          
1 46909U 20081E   23354.69260597  .00018378  00000+0  74494-3 0  9997
2 46909  36.8958 146.8219 0007225   0.3710 359.7043 15.23910361171558
LEMUR-2-WALLACE         
1 46910U 20081F   23354.82035939  .00028813  00000+0  12226-2 0  9993
2 46910  36.8954 149.7043 0007370 348.0364  12.0207 15.22255325171520
LEMUR-2-JEREMIAH        
1 46911U 20081G   23354.83437591  .00019095  00000+0  88697-3 0  9993
2 46911  36.9017 153.6846 0010836 340.2158  19.8168 15.19241006171497
KSM1-A                  
1 46912U 20081H   23355.43084660  .00007558  00000+0  51402-3 0  9991
2 46912  36.8960 179.3865 0005636 323.0517  36.9836 15.05938297171245
R2                      
1 46913U 20081J   23354.89583802  .00006971  00000+0  47188-3 0  9997
2 46913  36.9004 181.0480 0011201 271.9525  87.9934 15.06113041173941
KSM1-B                  
1 46914U 20081K   23355.46119574  .00007328  00000+0  50026-3 0  9995
2 46914  36.9004 179.9356 0009549 282.1240  77.8433 15.05789002170517
TIANTONG-1 2            
1 46916U 20082A   23355.51541016 -.00000344  00000+0  00000+0 0  9999
2 46916   2.7843 293.1714 0002815 356.7750 110.3694  1.00269100 11531
CORVUS BC5              
1 46931U 20085C   23355.40033143  .00109358  00000+0  11769-2 0  9995
2 46931  97.4965 148.4949 0006523 249.4507 110.6052 15.63343212172275
APSS-1                  
1 46932U 20085D   23355.37174583  .00269260  00000+0  15200-2 0  9999
2 46932  97.4866 149.3459 0006433 267.2519  92.8011 15.78381886172386
BRO-2                   
1 46940U 20085M   23355.42889638  .00034734  00000+0  79419-3 0  9997
2 46940  97.5141 142.0820 0006592 287.6892  72.3635 15.42731580171790
