OBJECT_NAME,OBJECT_ID,EPOCH,MEAN_MOTION,ECCENTRICITY,INCLINATION,RA_OF_ASC_NODE,ARG_OF_PERICENTER,MEAN_ANOMALY,EPHEMERIS_TYPE,CLASSIFICATION_TYPE,NORAD_CAT_ID,ELEMENT_SET_NO,REV_AT_EPOCH,BSTAR,MEAN_MOTION_DOT,MEAN_MOTION_DDOT
STARLINK-1933,2020-074BE,2023-12-21T06:59:52.624320,15.06377666,0.0002155,53.0566,355.1453,140.604,219.5106,0,U,46791,999,17435,-5.56E-04,-8.55E-05,0
STARLINK-1934,2020-074BF,2023-12-21T06:02:49.476192,15.0639558,0.0001572,53.0546,345.3329,100.1043,260.0124,0,U,46792,999,17448,1.99E-04,2.69E-05,0
STARLINK-1941,2020-074BG,2023-12-21T03:32:52.606176,15.06399182,0.0001402,53.0541,355.7944,81.6749,278.4399,0,U,46793,999,17433,2.33E-04,3.19E-05,0
STARLINK-1942,2020-074BH,2023-12-21T03:43:29.275680,15.06400857,0.0001441,53.0553,355.7574,98.6876,261.4276,0,U,46794,999,17433,2.52E-04,3.47E-05,0
STARLINK-1944,2020-074BK,2023-12-21T03:07:39.590112,15.06408451,0.0001185,53.0547,345.8706,93.2909,266.8216,0,U,46796,999,17447,4.09E-04,5.82E-05,0
STARLINK-1948,2020-074BM,2023-12-21T08:40:01.231104,15.06396913,0.0001411,53.0557,9.8336,89.9427,270.1723,0,U,46798,999,17422,3.00E-05,1.66E-06,0
COSMOS 2547 [GLONASS-K],2020-075A,2023-12-19T02:38:36.212640,2.13102801,0.0005689,64.606,222.9515,238.2061,121.8177,0,U,46805,999,2449,0,4.80E-07,0
YAOGAN-30 U,2020-076A,2023-12-21T11:16:08.739840,14.93682446,0.0000698,34.9926,194.8624,74.2492,285.829,0,U,46807,999,17183,3.37E-04,3.60E-05,0
YAOGAN-30 V,2020-076B,2023-12-21T01:06:08.193888,14.93717458,0.0002485,34.9931,197.1343,359.5541,0.5162,0,U,46808,999,17177,3.29E-04,3.53E-05,0
YAOGAN-30 W,2020-076C,2023-12-21T11:47:44.691072,14.93695736,0.0006525,34.9944,194.2479,72.36,287.7818,0,U,46809,999,17183,3.38E-04,3.62E-05,0
TIANQI-6,2020-076D,2023-12-20T23:35:47.640192,14.95410064,0.0012551,35.0001,181.3544,138.709,221.4567,0,U,46810,999,17193,4.21E-04,4.72E-05,0
FLOCK 4V-25,2020-061BP,2023-12-20T18:42:43.632288,15.56409624,0.0002304,97.3219,69.398,321.022,39.0869,0,U,46812,999,17542,9.97E-04,7.08E-04,0
FLOCK 4E'-8,2020-077D,2023-12-20T17:36:31.926240,15.55228513,0.000571,97.3493,65.4863,186.8142,173.3035,0,U,46816,999,17517,7.05E-04,4.78E-04,0
FLOCK 4E'-5,2020-077E,2023-12-20T18:29:53.815200,15.57389125,0.000538,97.3426,64.7955,212.863,147.2292,0,U,46817,999,17513,1.01E-03,7.46E-04,0
CE-SAT IIB,2020-077F,2023-12-21T10:37:18.880896,15.26820628,0.0009782,97.3435,52.3319,254.7329,105.2829,0,U,46818,999,17440,4.89E-04,1.28E-04,0
FLOCK 4E'-3,2020-077G,2023-12-20T17:53:34.799424,15.57474608,0.0003722,97.3432,64.4809,203.568,156.5406,0,U,46819,999,17513,8.47E-04,6.25E-04,0
NAVSTAR 80 (USA 309),2020-078A,2023-12-20T14:28:25.509792,2.00562228,0.0038178,54.2575,247.7074,193.7488,343.0881,0,U,46826,999,2326,0,-4.00E-08,0
RISAT-2BR2,2020-081A,2023-12-20T21:42:20.634336,14.98100822,0.0011422,36.8983,213.0384,343.0536,16.9822,0,U,46905,999,17084,4.04E-04,4.80E-05,0
KSM1-C,2020-081B,2023-12-20T21:50:43.381248,15.05996949,0.0004211,36.8925,183.2967,244.6866,115.344,0,U,46906,999,17108,5.07E-04,7.46E-05,0
KSM1-D,2020-081C,2023-12-21T10:55:20.054208,15.05808164,0.0006727,36.8969,180.5725,261.9279,98.07,0,U,46907,999,17123,4.85E-04,7.10E-05,0
LEMUR-2-OZARAK,2020-081D,2023-12-20T15:19:23.690496,15.19724222,0.0007025,36.8959,156.6129,335.7297,24.3118,0,U,46908,999,17143,1.01E-03,2.21E-04,0
LEMUR-2-JINDRA,2020-081E,2023-12-20T16:37:21.155808,15.23910361,0.0007225,36.8958,146.8219,0.371,359.7043,0,U,46909,999,17155,7.45E-04,1.84E-04,0
LEMUR-2-WALLACE,2020-081F,2023-12-20T19:41:19.051296,15.22255325,0.000737,36.8954,149.7043,348.0364,12.0207,0,U,46910,999,17152,1.22E-03,2.88E-04,0
LEMUR-2-JEREMIAH,2020-081G,2023-12-20T20:01:30.078624,15.19241006,0.0010836,36.9017,153.6846,340.2158,19.8168,0,U,46911,999,17149,8.87E-04,1.91E-04,0
KSM1-A,2020-081H,2023-12-21T10:20:25.146240,15.05938297,0.0005636,36.896,179.3865,323.0517,36.9836,0,U,46912,999,17124,5.14E-04,7.56E-05,0
R2,2020-081J,2023-12-20T21:30:00.404928,15.06113041,0.0011201,36.9004,181.048,271.9525,87.9934,0,U,46913,999,17394,4.72E-04,6.97E-05,0
KSM1-B,2020-081K,2023-12-21T11:04:07.311936,15.05789002,0.0009549,36.9004,179.9356,282.124,77.8433,0,U,46914,999,17051,5.00E-04,7.33E-05,0
TIANTONG-1 2,2020-082A,2023-12-21T12:22:11.437824,1.002691,0.0002815,2.7843,293.1714,356.775,110.3694,0,U,46916,999,1153,0,-3.44E-06,0
CORVUS BC5,2020-085C,2023-12-21T09:36:28.635552,15.63343212,0.0006523,97.4965,148.4949,249.4507,110.6052,0,U,46931,999,17227,1.18E-03,1.09E-03,0
APSS-1,2020-085D,2023-12-21T08:55:18.839712,15.78381886,0.0006433,97.4866,149.3459,267.2519,92.8011,0,U,46932,999,17238,1.52E-03,2.69E-03,0
BRO-2,2020-085M,2023-12-21T10:17:36.647232,15.4273158,0.0006592,97.5141,142.082,287.6892,72.3635,0,U,46940,999,17179,7.94E-04,3.47E-04,0
